{"fetched_at":"2026-07-13T18:17:25.453Z","source":"https://celestrak.org/NORAD/elements/gp.php?NAME=WORLDVIEW&FORMAT=JSON","constellation":"worldview","records":[{"OBJECT_NAME":"WORLDVIEW-1 (WV-1)","OBJECT_ID":"2007-041A","EPOCH":"2026-07-13T06:51:51.618240","CLASSIFICATION_TYPE":"U","MEAN_MOTION":15.24545847,"ECCENTRICITY":0.00013483,"INCLINATION":97.3901,"RA_OF_ASC_NODE":313.6626,"ARG_OF_PERICENTER":215.1464,"MEAN_ANOMALY":144.9685,"EPHEMERIS_TYPE":0,"NORAD_CAT_ID":32060,"ELEMENT_SET_NO":999,"REV_AT_EPOCH":4685,"BSTAR":0.00014610817,"MEAN_MOTION_DOT":0.00003525,"MEAN_MOTION_DDOT":0},{"OBJECT_NAME":"WORLDVIEW-2 (WV-2)","OBJECT_ID":"2009-055A","EPOCH":"2026-07-13T06:12:14.886432","CLASSIFICATION_TYPE":"U","MEAN_MOTION":14.37906621,"ECCENTRICITY":0.00052336,"INCLINATION":98.4757,"RA_OF_ASC_NODE":267.3531,"ARG_OF_PERICENTER":134.5546,"MEAN_ANOMALY":225.6069,"EPHEMERIS_TYPE":0,"NORAD_CAT_ID":35946,"ELEMENT_SET_NO":999,"REV_AT_EPOCH":87939,"BSTAR":0.000027117648,"MEAN_MOTION_DOT":3.8e-7,"MEAN_MOTION_DDOT":0},{"OBJECT_NAME":"WORLDVIEW-3 (WV-3)","OBJECT_ID":"2014-048A","EPOCH":"2026-07-13T07:27:12.863520","CLASSIFICATION_TYPE":"U","MEAN_MOTION":14.85062508,"ECCENTRICITY":0.00011562,"INCLINATION":97.8557,"RA_OF_ASC_NODE":268.782,"ARG_OF_PERICENTER":159.0945,"MEAN_ANOMALY":201.0318,"EPHEMERIS_TYPE":0,"NORAD_CAT_ID":40115,"ELEMENT_SET_NO":999,"REV_AT_EPOCH":64578,"BSTAR":0.000057001778,"MEAN_MOTION_DOT":0.00000434,"MEAN_MOTION_DDOT":0}]}
